TJS-20                  
1 66142U 25238A   25325.85550964  .00000043  00000+0  00000+0 0  9993
2 66142   5.9351 300.4090 0001486  96.3571  34.8066  1.00270042   250
CZ-5 R/B                
1 66143U 25238B   25325.78451918  .00096912  16023-5  20230-2 0  9993
2 66143  16.2577 263.5509 7584983 182.4196 168.8103  1.95162050   584
SPAINSAT NG II          
1 66144U 25239A   25321.84156371 -.00000354  00000+0  00000+0 0  9991
2 66144  19.9038 243.4991 7869625 184.0240 159.6654  1.04198281   298
STARLINK-35318          
1 66146U 25240A   25325.82529770  .00068380  00000+0  17002-2 0  9999
2 66146  53.1585 205.2710 0001645 133.3909 226.7234 15.39691704  5504
STARLINK-33948          
1 66147U 25240B   25325.73186316  .00050315  00000+0  12594-2 0  9995
2 66147  53.1591 205.3965 0001402 112.6294 247.4860 15.39625104  5497
STARLINK-35081          
1 66148U 25240C   25325.91670139 -.01067126  00000+0 -20887-1 0  9991
2 66148  53.1585 204.3218 0000925 111.5115 296.4261 15.49664900  5554
STARLINK-35601          
1 66149U 25240D   25325.91670139  .00016812  00000+0  42977-3 0  9991
2 66149  53.1589 204.6784 0001262  71.4398 156.5022 15.39589579  5550
STARLINK-35605          
1 66150U 25240E   25325.85326583 -.00350182  00000+0 -80233-2 0  9996
2 66150  53.1586 204.7307 0000490 109.6184 250.4876 15.43557598  5462
STARLINK-35540          
1 66151U 25240F   25325.85003201  .00092179  00000+0  16349-2 0  9990
2 66151  53.1590 204.7097 0000841  98.2317 261.8788 15.49499675  5460
STARLINK-35455          
1 66152U 25240G   25325.88557234  .00035403  00000+0  89176-3 0  9990
2 66152  53.1583 204.9334 0001175  49.8409 310.2698 15.39592363  5460
STARLINK-34752          
1 66153U 25240H   25325.91670139  .00018172  00000+0  46370-3 0  9998
2 66153  53.1590 204.6276 0001207  72.0637 181.6297 15.39585650  5554
STARLINK-34625          
1 66154U 25240J   25325.91670139  .00025718  00000+0  65179-3 0  9991
2 66154  53.1592 204.4731 0000822  65.1623 265.7094 15.39572380  5602
