CCSDS_OMM_VERS = 2.0
CREATION_DATE  = 
ORIGINATOR     = 

OBJECT_NAME    = TJS-20
OBJECT_ID      = 2025-238A
CENTER_NAME    = EARTH
REF_FRAME      = TEME
TIME_SYSTEM    = UTC
MEAN_ELEMENT_THEORY = SGP/SGP4

EPOCH          = 2025-11-21T20:31:56.032896
MEAN_MOTION    = 1.00270042
ECCENTRICITY   = .0001486
INCLINATION    = 5.9351
RA_OF_ASC_NODE = 300.4090
ARG_OF_PERICENTER = 96.3571
MEAN_ANOMALY   = 34.8066

EPHEMERIS_TYPE = 0
CLASSIFICATION_TYPE = U
NORAD_CAT_ID   = 66142
ELEMENT_SET_NO = 999
REV_AT_EPOCH   = 25
BSTAR          = 0
MEAN_MOTION_DOT = .43E-6
MEAN_MOTION_DDOT = 0

CCSDS_OMM_VERS = 2.0
CREATION_DATE  = 
ORIGINATOR     = 

OBJECT_NAME    = CZ-5 R/B
OBJECT_ID      = 2025-238B
CENTER_NAME    = EARTH
REF_FRAME      = TEME
TIME_SYSTEM    = UTC
MEAN_ELEMENT_THEORY = SGP/SGP4

EPOCH          = 2025-11-21T18:49:42.457152
MEAN_MOTION    = 1.95162050
ECCENTRICITY   = .7584983
INCLINATION    = 16.2577
RA_OF_ASC_NODE = 263.5509
ARG_OF_PERICENTER = 182.4196
MEAN_ANOMALY   = 168.8103

EPHEMERIS_TYPE = 0
CLASSIFICATION_TYPE = U
NORAD_CAT_ID   = 66143
ELEMENT_SET_NO = 999
REV_AT_EPOCH   = 58
BSTAR          = .2023E-2
MEAN_MOTION_DOT = .96912E-3
MEAN_MOTION_DDOT = .16023E-5

CCSDS_OMM_VERS = 2.0
CREATION_DATE  = 
ORIGINATOR     = 

OBJECT_NAME    = SPAINSAT NG II
OBJECT_ID      = 2025-239A
CENTER_NAME    = EARTH
REF_FRAME      = TEME
TIME_SYSTEM    = UTC
MEAN_ELEMENT_THEORY = SGP/SGP4

EPOCH          = 2025-11-17T20:11:51.104544
MEAN_MOTION    = 1.04198281
ECCENTRICITY   = .78696251
INCLINATION    = 19.9038
RA_OF_ASC_NODE = 243.4991
ARG_OF_PERICENTER = 184.0240
MEAN_ANOMALY   = 159.6654

EPHEMERIS_TYPE = 0
CLASSIFICATION_TYPE = U
NORAD_CAT_ID   = 66144
ELEMENT_SET_NO = 999
REV_AT_EPOCH   = 29
BSTAR          = 0
MEAN_MOTION_DOT = -.354E-5
MEAN_MOTION_DDOT = 0

CCSDS_OMM_VERS = 2.0
CREATION_DATE  = 
ORIGINATOR     = 

OBJECT_NAME    = STARLINK-35318
OBJECT_ID      = 2025-240A
CENTER_NAME    = EARTH
REF_FRAME      = TEME
TIME_SYSTEM    = UTC
MEAN_ELEMENT_THEORY = SGP/SGP4

EPOCH          = 2025-11-21T19:48:25.721280
MEAN_MOTION    = 15.39691704
ECCENTRICITY   = .0001645
INCLINATION    = 53.1585
RA_OF_ASC_NODE = 205.2710
ARG_OF_PERICENTER = 133.3909
MEAN_ANOMALY   = 226.7234

EPHEMERIS_TYPE = 0
CLASSIFICATION_TYPE = U
NORAD_CAT_ID   = 66146
ELEMENT_SET_NO = 999
REV_AT_EPOCH   = 550
BSTAR          = .17002E-2
MEAN_MOTION_DOT = .6838E-3
MEAN_MOTION_DDOT = 0

CCSDS_OMM_VERS = 2.0
CREATION_DATE  = 
ORIGINATOR     = 

OBJECT_NAME    = STARLINK-33948
OBJECT_ID      = 2025-240B
CENTER_NAME    = EARTH
REF_FRAME      = TEME
TIME_SYSTEM    = UTC
MEAN_ELEMENT_THEORY = SGP/SGP4

EPOCH          = 2025-11-21T17:33:52.977024
MEAN_MOTION    = 15.39625104
ECCENTRICITY   = .0001402
INCLINATION    = 53.1591
RA_OF_ASC_NODE = 205.3965
ARG_OF_PERICENTER = 112.6294
MEAN_ANOMALY   = 247.4860

EPHEMERIS_TYPE = 0
CLASSIFICATION_TYPE = U
NORAD_CAT_ID   = 66147
ELEMENT_SET_NO = 999
REV_AT_EPOCH   = 549
BSTAR          = .12594E-2
MEAN_MOTION_DOT = .50315E-3
MEAN_MOTION_DDOT = 0

CCSDS_OMM_VERS = 2.0
CREATION_DATE  = 
ORIGINATOR     = 

OBJECT_NAME    = STARLINK-35081
OBJECT_ID      = 2025-240C
CENTER_NAME    = EARTH
REF_FRAME      = TEME
TIME_SYSTEM    = UTC
MEAN_ELEMENT_THEORY = SGP/SGP4

EPOCH          = 2025-11-21T22:00:03.000096
MEAN_MOTION    = 15.49664900
ECCENTRICITY   = .0000925
INCLINATION    = 53.1585
RA_OF_ASC_NODE = 204.3218
ARG_OF_PERICENTER = 111.5115
MEAN_ANOMALY   = 296.4261

EPHEMERIS_TYPE = 0
CLASSIFICATION_TYPE = U
NORAD_CAT_ID   = 66148
ELEMENT_SET_NO = 999
REV_AT_EPOCH   = 555
BSTAR          = -.20887E-1
MEAN_MOTION_DOT = -.1067126E-1
MEAN_MOTION_DDOT = 0

CCSDS_OMM_VERS = 2.0
CREATION_DATE  = 
ORIGINATOR     = 

OBJECT_NAME    = STARLINK-35601
OBJECT_ID      = 2025-240D
CENTER_NAME    = EARTH
REF_FRAME      = TEME
TIME_SYSTEM    = UTC
MEAN_ELEMENT_THEORY = SGP/SGP4

EPOCH          = 2025-11-21T22:00:03.000096
MEAN_MOTION    = 15.39589579
ECCENTRICITY   = .0001262
INCLINATION    = 53.1589
RA_OF_ASC_NODE = 204.6784
ARG_OF_PERICENTER = 71.4398
MEAN_ANOMALY   = 156.5022

EPHEMERIS_TYPE = 0
CLASSIFICATION_TYPE = U
NORAD_CAT_ID   = 66149
ELEMENT_SET_NO = 999
REV_AT_EPOCH   = 555
BSTAR          = .42977E-3
MEAN_MOTION_DOT = .16812E-3
MEAN_MOTION_DDOT = 0

CCSDS_OMM_VERS = 2.0
CREATION_DATE  = 
ORIGINATOR     = 

OBJECT_NAME    = STARLINK-35605
OBJECT_ID      = 2025-240E
CENTER_NAME    = EARTH
REF_FRAME      = TEME
TIME_SYSTEM    = UTC
MEAN_ELEMENT_THEORY = SGP/SGP4

EPOCH          = 2025-11-21T20:28:42.167712
MEAN_MOTION    = 15.43557598
ECCENTRICITY   = .000049
INCLINATION    = 53.1586
RA_OF_ASC_NODE = 204.7307
ARG_OF_PERICENTER = 109.6184
MEAN_ANOMALY   = 250.4876

EPHEMERIS_TYPE = 0
CLASSIFICATION_TYPE = U
NORAD_CAT_ID   = 66150
ELEMENT_SET_NO = 999
REV_AT_EPOCH   = 546
BSTAR          = -.80233E-2
MEAN_MOTION_DOT = -.350182E-2
MEAN_MOTION_DDOT = 0

CCSDS_OMM_VERS = 2.0
CREATION_DATE  = 
ORIGINATOR     = 

OBJECT_NAME    = STARLINK-35540
OBJECT_ID      = 2025-240F
CENTER_NAME    = EARTH
REF_FRAME      = TEME
TIME_SYSTEM    = UTC
MEAN_ELEMENT_THEORY = SGP/SGP4

EPOCH          = 2025-11-21T20:24:02.765664
MEAN_MOTION    = 15.49499675
ECCENTRICITY   = .0000841
INCLINATION    = 53.1590
RA_OF_ASC_NODE = 204.7097
ARG_OF_PERICENTER = 98.2317
MEAN_ANOMALY   = 261.8788

EPHEMERIS_TYPE = 0
CLASSIFICATION_TYPE = U
NORAD_CAT_ID   = 66151
ELEMENT_SET_NO = 999
REV_AT_EPOCH   = 546
BSTAR          = .16349E-2
MEAN_MOTION_DOT = .92179E-3
MEAN_MOTION_DDOT = 0

CCSDS_OMM_VERS = 2.0
CREATION_DATE  = 
ORIGINATOR     = 

OBJECT_NAME    = STARLINK-35455
OBJECT_ID      = 2025-240G
CENTER_NAME    = EARTH
REF_FRAME      = TEME
TIME_SYSTEM    = UTC
MEAN_ELEMENT_THEORY = SGP/SGP4

EPOCH          = 2025-11-21T21:15:13.450176
MEAN_MOTION    = 15.39592363
ECCENTRICITY   = .0001175
INCLINATION    = 53.1583
RA_OF_ASC_NODE = 204.9334
ARG_OF_PERICENTER = 49.8409
MEAN_ANOMALY   = 310.2698

EPHEMERIS_TYPE = 0
CLASSIFICATION_TYPE = U
NORAD_CAT_ID   = 66152
ELEMENT_SET_NO = 999
REV_AT_EPOCH   = 546
BSTAR          = .89176E-3
MEAN_MOTION_DOT = .35403E-3
MEAN_MOTION_DDOT = 0

CCSDS_OMM_VERS = 2.0
CREATION_DATE  = 
ORIGINATOR     = 

OBJECT_NAME    = STARLINK-34752
OBJECT_ID      = 2025-240H
CENTER_NAME    = EARTH
REF_FRAME      = TEME
TIME_SYSTEM    = UTC
MEAN_ELEMENT_THEORY = SGP/SGP4

EPOCH          = 2025-11-21T22:00:03.000096
MEAN_MOTION    = 15.39585650
ECCENTRICITY   = .0001207
INCLINATION    = 53.1590
RA_OF_ASC_NODE = 204.6276
ARG_OF_PERICENTER = 72.0637
MEAN_ANOMALY   = 181.6297

EPHEMERIS_TYPE = 0
CLASSIFICATION_TYPE = U
NORAD_CAT_ID   = 66153
ELEMENT_SET_NO = 999
REV_AT_EPOCH   = 555
BSTAR          = .4637E-3
MEAN_MOTION_DOT = .18172E-3
MEAN_MOTION_DDOT = 0

CCSDS_OMM_VERS = 2.0
CREATION_DATE  = 
ORIGINATOR     = 

OBJECT_NAME    = STARLINK-34625
OBJECT_ID      = 2025-240J
CENTER_NAME    = EARTH
REF_FRAME      = TEME
TIME_SYSTEM    = UTC
MEAN_ELEMENT_THEORY = SGP/SGP4

EPOCH          = 2025-11-21T22:00:03.000096
MEAN_MOTION    = 15.39572380
ECCENTRICITY   = .0000822
INCLINATION    = 53.1592
RA_OF_ASC_NODE = 204.4731
ARG_OF_PERICENTER = 65.1623
MEAN_ANOMALY   = 265.7094

EPHEMERIS_TYPE = 0
CLASSIFICATION_TYPE = U
NORAD_CAT_ID   = 66154
ELEMENT_SET_NO = 999
REV_AT_EPOCH   = 560
BSTAR          = .65179E-3
MEAN_MOTION_DOT = .25718E-3
MEAN_MOTION_DDOT = 0

